# JPL Horizons API transcript for golden quantity 'venus_bary'
# fetched 2026-07-02 by tests/golden/ephemeris/generate.py
# request:
# https://ssd.jpl.nasa.gov/api/horizons.api?format=text&COMMAND=%272%27&OBJ_DATA=%27NO%27&MAKE_EPHEM=%27YES%27&EPHEM_TYPE=%27VECTORS%27&CENTER=%27500%400%27&TLIST_TYPE=%27JD%27&TLIST=%272458848.5+2459659.5+2460471.5+2461283.5+2462095.5+2462906.5+2463712.5+2463718.5+2464530.5+2465342.5+2466154.5+2466965.5+2467777.5+2468589.5+2468592.5+2469401.5+2470212.5+2471024.5+2471836.5+2472648.5+2473460.5%27&REF_SYSTEM=%27ICRF%27&REF_PLANE=%27FRAME%27&VEC_TABLE=%272%27&VEC_CORR=%27NONE%27&OUT_UNITS=%27KM-S%27&CSV_FORMAT=%27YES%27
# response follows verbatim:
API VERSION: 1.2
API SOURCE: NASA/JPL Horizons API



*******************************************************************************
Ephemeris / API_USER Thu Jul  2 15:28:15 2026 Pasadena, USA      / Horizons
*******************************************************************************
Target body name: Venus Barycenter (299)          {source: DE441}
Center body name: Solar System Barycenter (0)     {source: DE441}
Center-site name: BODY CENTER
*******************************************************************************
Start time      : A.D. 2019-Dec-31 00:00:00.0000 TDB
Stop  time      : A.D. 2060-Jan-02 00:00:00.0000 TDB
Step-size       : DISCRETE TIME-LIST
*******************************************************************************
Center geodetic : 0.0, 0.0, 0.0                   {E-lon(deg),Lat(deg),Alt(km)}
Center cylindric: 0.0, 0.0, 0.0                   {E-lon(deg),Dxy(km),Dz(km)}
Center radii    : (undefined)
Output units    : KM-S
Calendar mode   : Mixed Julian/Gregorian
Output type     : GEOMETRIC cartesian states
Output format   : 2 (position and velocity)
Reference frame : ICRF
*******************************************************************************
            JDTDB,            Calendar Date (TDB),                      X,                      Y,                      Z,                     VX,                     VY,                     VZ,
**************************************************************************************************************************************************************************************************
$$SOE
2458848.500000000, A.D. 2019-Dec-31 00:00:00.0000,  1.078117633290858E+08,  7.935100991072409E+06, -3.300116069118924E+06, -1.725522328324229E+00,  3.172028260574356E+01,  1.438133443163126E+01,
2459659.500000000, A.D. 2022-Mar-21 00:00:00.0000, -8.005877909388737E+07, -6.909366589592551E+07, -2.608331859727562E+07,  2.376009593571211E+01, -2.286836185240290E+01, -1.179288950114588E+01,
2460471.500000000, A.D. 2024-Jun-10 00:00:00.0000,  1.242951161343120E+07,  9.723126477597925E+07,  4.293895988765103E+07, -3.485241620311318E+01,  3.028136516114768E+00,  3.568223797624273E+00,
2461283.500000000, A.D. 2026-Aug-31 00:00:00.0000,  6.123210155396175E+07, -8.123345395753250E+07, -4.041230632586319E+07,  2.868123476645637E+01,  1.858365356811589E+01,  6.547979952493407E+00,
2462095.500000000, A.D. 2028-Nov-20 00:00:00.0000, -1.038905319805588E+08,  2.160425257981801E+07,  1.631480955637656E+07, -8.831987480598659E+00, -3.128788280258219E+01, -1.352039437165243E+01,
2462906.500000000, A.D. 2031-Feb-09 00:00:00.0000,  9.884467262184611E+07,  4.245774792236187E+07,  1.284922783732438E+07, -1.430864207104050E+01,  2.873652676754121E+01,  1.383585522222136E+01,
2463712.500000000, A.D. 2033-Apr-25 00:00:00.0000, -6.024823657922733E+07, -8.408106972552674E+07, -3.404579912771882E+07,  2.901690287478494E+01, -1.703202385211524E+01, -9.499962444749121E+00,
2463718.500000000, A.D. 2033-May-01 00:00:00.0000, -4.444531366648201E+07, -9.169786209622683E+07, -3.847302178433406E+07,  3.180755031804663E+01, -1.228782848896355E+01, -7.541622584752939E+00,
2464530.500000000, A.D. 2035-Jul-22 00:00:00.0000, -3.029062544959674E+07,  9.267849104270460E+07,  4.362041836133286E+07, -3.375904757171248E+01, -9.802395818123076E+00, -2.275038475371182E+00,
2465342.500000000, A.D. 2037-Oct-11 00:00:00.0000,  9.175704053417352E+07, -5.270601921823987E+07, -2.948865212492264E+07,  1.880356547538377E+01,  2.713534230067498E+01,  1.102201173687766E+01,
2466154.500000000, A.D. 2040-Jan-01 00:00:00.0000, -1.052891843222958E+08, -1.805735371179171E+07, -1.426126931563218E+06,  5.253941149066073E+00, -3.155529107035549E+01, -1.453297925605863E+01,
2466965.500000000, A.D. 2042-Mar-22 00:00:00.0000,  7.457093503675385E+07,  7.423295836309820E+07,  2.869883182454330E+07, -2.569152944480611E+01,  2.110452049908444E+01,  1.112205349595414E+01,
2467777.500000000, A.D. 2044-Jun-11 00:00:00.0000, -1.956129652993489E+06, -9.848022157976834E+07, -4.422449492248175E+07,  3.476918066859469E+01,  1.551787175501280E-01, -2.129818162418548E+00,
2468589.500000000, A.D. 2046-Sep-01 00:00:00.0000, -6.886054242390007E+07,  7.413971657639009E+07,  3.768949400108176E+07, -2.717638459792269E+01, -2.108752844041765E+01, -7.771023547033809E+00,
2468592.500000000, A.D. 2046-Sep-04 00:00:00.0000, -7.565158601782577E+07,  6.841455293164237E+07,  3.554255349627381E+07, -2.519228666622270E+01, -2.306168590158834E+01, -8.784963683658969E+00,
2469401.500000000, A.D. 2048-Nov-21 00:00:00.0000,  1.066864952497179E+08, -1.531124399573945E+07, -1.363663316711014E+07,  5.951747352124476E+00,  3.143858878474355E+01,  1.377286709279390E+01,
2470212.500000000, A.D. 2051-Feb-10 00:00:00.0000, -9.260074173940410E+07, -5.243965298914827E+07, -1.771892228629847E+07,  1.756392036308625E+01, -2.724144319074783E+01, -1.337096576747056E+01,
2471024.500000000, A.D. 2053-May-02 00:00:00.0000,  3.716007458989235E+07,  9.362623278303488E+07,  3.980136239666015E+07, -3.303390432562048E+01,  1.001585536781595E+01,  6.596654670020309E+00,
2471836.500000000, A.D. 2055-Jul-23 00:00:00.0000,  4.001751515934289E+07, -9.072377419536816E+07, -4.337690953504919E+07,  3.226330751187129E+01,  1.250298485850973E+01,  3.586390331351241E+00,
2472648.500000000, A.D. 2057-Oct-12 00:00:00.0000, -9.646424600516981E+07,  4.236887323017988E+07,  2.515000931242723E+07, -1.616052557239371E+01, -2.894377965563514E+01, -1.200473435271952E+01,
2473460.500000000, A.D. 2060-Jan-02 00:00:00.0000,  1.051796799740462E+08,  2.335785117493180E+07,  3.877688134597833E+06, -7.891601804288388E+00,  3.080871228453903E+01,  1.436629685591944E+01,
$$EOE
**************************************************************************************************************************************************************************************************
 
TIME

  Barycentric Dynamical Time ("TDB" or T_eph) output was requested. This
continuous coordinate time is equivalent to the relativistic proper time
of a clock at rest in a reference frame co-moving with the solar system
barycenter but outside the system's gravity well. It is the independent
variable in the solar system relativistic equations of motion.

  TDB runs at a uniform rate of one SI second per second and is independent
of irregularities in Earth's rotation.
 
CALENDAR SYSTEM

  Mixed calendar mode was active such that calendar dates after AD 1582-Oct-15
(if any) are in the modern Gregorian system. Dates prior to 1582-Oct-5 (if any)
are in the Julian calendar system, which is automatically extended for dates
prior to its adoption on 45-Jan-1 BC.  The Julian calendar is useful for
matching historical dates. The Gregorian calendar more accurately corresponds
to the Earth's orbital motion and seasons. A "Gregorian-only" calendar mode is
available if such physical events are the primary interest.

REFERENCE FRAME AND COORDINATES

  International Celestial Reference Frame (ICRF)

    The ICRF is an adopted reference frame whose axes are defined relative to 
    fixed extragalactic radio sources distributed across the sky.

    The ICRF was aligned with the prior FK5/J2000 dynamical system at the ~0.02 
    arcsecond level but is not identical and has no associated standard epoch.

  Symbol meaning:

    JDTDB    Julian Day Number, Barycentric Dynamical Time
      X      X-component of position vector (km)
      Y      Y-component of position vector (km)
      Z      Z-component of position vector (km)
      VX     X-component of velocity vector (km/sec)                           
      VY     Y-component of velocity vector (km/sec)                           
      VZ     Z-component of velocity vector (km/sec)                           

ABERRATIONS AND CORRECTIONS

 Geometric state vectors have NO corrections or aberrations applied.

Computations by ...

    Solar System Dynamics Group, Horizons On-Line Ephemeris System
    4800 Oak Grove Drive, Jet Propulsion Laboratory
    Pasadena, CA  91109   USA

    General site: https://ssd.jpl.nasa.gov/
    Mailing list: https://ssd.jpl.nasa.gov/email_list.html
    System news : https://ssd.jpl.nasa.gov/horizons/news.html
    User Guide  : https://ssd.jpl.nasa.gov/horizons/manual.html
    Connect     : browser        https://ssd.jpl.nasa.gov/horizons/app.html#/x
                  API            https://ssd-api.jpl.nasa.gov/doc/horizons.html
                  command-line   telnet ssd.jpl.nasa.gov 6775
                  e-mail/batch   https://ssd.jpl.nasa.gov/ftp/ssd/horizons_batch.txt
                  scripts        https://ssd.jpl.nasa.gov/ftp/ssd/SCRIPTS
    Inquiries   : Jon.D.Giorgini@jpl.nasa.gov
*******************************************************************************
